SITRO-AIS-26
1 59067U 24039S   25311.14771922  .00004905  00000-0  40249-3 0  9990
2 59067  95.3938  82.6379 0152041  24.2885 336.5408 14.90783097 91606
SITRO-AIS-27
1 59068U 24039T   25311.17592816  .00005484  00000-0  44648-3 0  9997
2 59068  95.3938  82.8353 0151199  23.2906 337.5074 14.91133791 91620
SITRO-AIS-28
1 59071U 24039U   25311.22599208  .00005398  00000-0  43922-3 0  9997
2 59071  95.3938  82.9049 0151033  22.9713 337.8172 14.91176942 91634
SONATE-2
1 59112U 24043Q   25310.80782573  .00034067  00000-0  78596-3 0  9990
2 59112  97.5322  85.7955 0008911 296.5826  63.4507 15.42448587 93436
HORS-1
1 57188U 23091Y   25311.18977435  .00012795  00000-0  56531-3 0  9997
2 57188  97.5403   8.9053 0010778 145.5980 214.5956 15.21808892130492
HORS-2
1 57196U 23091AG  25311.20945733  .00016515  00000-0  65977-3 0  9993
2 57196  97.5416  10.8728 0010250 141.8657 218.3308 15.25162582130611
ZORKIY-2M 6
1 59774U 24092B   25311.23300432  .00014202  00000-0  60410-3 0  9991
2 59774  97.6292  70.5399 0009383 236.8909 123.1427 15.23092453 81689
ZORKIY-2M 4
1 59775U 24092C   25311.23983652  .00015204  00000-0  63649-3 0  9993
2 59775  97.6426  71.7627 0009345 240.2705 119.7602 15.23618511 81716
SITRO-AIS-53
1 59776U 24092D   25310.81208314  .00024126  00000-0  90311-3 0  9991
2 59776  97.6371  71.6757 0008627 212.4965 147.5743 15.27264207 81695
SITRO-AIS-54
1 59777U 24092E   25310.81533076  .00024504  00000-0  91872-3 0  9991
2 59777  97.6374  71.6632 0008827 213.2117 146.8569 15.27206597 81697
SITRO-AIS-56
1 59778U 24092F   25310.81212640  .00025119  00000-0  92948-3 0  9991
2 59778  97.6369  71.7900 0008953 213.5232 146.5441 15.27635085 81708
RASSVET 1-4
1 59779U 24092G   25311.20794846  .00000333  00000-0  14150-3 0  9999
2 59779  98.6509  65.7998 0012716 138.0289 222.1870 14.31707727 77137
RASSVET 1-5
1 59780U 24092H   25311.20779228  .00000339  00000-0  14351-3 0  9997
2 59780  98.6508  65.7947 0013072 139.3576 220.8585 14.31707089 77130
RASSVET 1-6
1 59781U 24092J   25311.20648976  .00000339  00000-0  14356-3 0  9998
2 59781  98.6508  65.7977 0012962 139.5857 220.6291 14.31707418 77133
SITRO-AIS-55
1 59809U 24092K   25310.78270055  .00023435  00000-0  88168-3 0  9994
2 59809  97.6364  71.5136 0009046 213.6360 146.4305 15.27099838 81184
MESAT-1
1 60209U 24125G   25311.09611278  .00028755  00000-0  64444-3 0  9999
2 60209  97.2562 161.5108 0014892 320.4313  39.5847 15.43270728 75100
ISTSAT-1
1 60238U 24128D   25311.19586581  .00010411  00000-0  66841-3 0  9996
2 60238  61.9897 268.9523 0055204  87.9982 272.7432 15.07703520 72944
IONOSFERA-M 01
1 61735U 24199A   25311.17131051  .00000095  00000-0  62395-4 0  9991
2 61735  98.7433 181.2871 0002051  72.6432 287.4970 14.22701642 96133
IONOSFERA-M 02
1 61736U 24199B   25311.20600262  .00000096  00000-0  62705-4 0  9997
2 61736  98.7432 181.2344 0000349 129.4677 230.6532 14.22703571 99262
SITRO-AIS-16
1 61737U 24199C   25311.15823911  .00003592  00000-0  32507-3 0  9990
2 61737  97.3376 159.3032 0008349  93.4194 266.7983 14.95955023 98605
SITRO-AIS-15
1 61738U 24199D   25311.21264109  .00004317  00000-0  38937-3 0  9995
2 61738  97.3380 159.3831 0008410  93.6187 266.5997 14.95992787 98613
SITRO-AIS-21
1 61739U 24199E   25311.21230216  .00002582  00000-0  24603-3 0  9995
2 61739  97.3385 158.5044 0014595  90.1741 270.1152 14.94092850 98597
SITRO-AIS-22
1 61740U 24199F   25311.19433441  .00004661  00000-0  43721-3 0  9991
2 61740  97.3379 158.5369 0014669  90.6548 269.6354 14.94360009 98742
SITRO-AIS-24
1 61741U 24199G   25311.20317097  .00005297  00000-0  49595-3 0  9993
2 61741  97.3382 158.5310 0014653  91.3058 268.9842 14.94373214 98713
SITRO-AIS-23
1 61742U 24199H   25311.11888356  .00004248  00000-0  39863-3 0  9997
2 61742  97.3376 158.4864 0014364  91.7721 268.5145 14.94384563 98586
SITRO-AIS-13
1 61743U 24199J   25311.17099156  .00004157  00000-0  37320-3 0  9991
2 61743  97.3366 159.4326 0007674  95.1759 265.0339 14.96201790 98775
CSTP-2.11
1 61744U 24199K   25311.18198911  .00025737  00000-0  66307-3 0  9996
2 61744  97.3290 179.5768 0011197  12.7515 347.4011 15.39129724100078
POLYTECH UNIVERSE-5 (RS70S)
1 61745U 24199L   25311.06557910  .00032338  00000-0  75410-3 0  9992
2 61745  97.3266 180.0560 0009383  21.6787 338.4855 15.42130447103249
COLIBRI-S (RS67S)
1 61746U 24199M   25311.17279237  .00022233  00000-0  60630-3 0  9999
2 61746  97.3294 179.1370 0011382  15.3148 344.8439 15.37403076103189
POLYTECH UNIVERSE-4 (RS71S)
1 61747U 24199N   25311.20674597  .00019996  00000-0  56162-3 0  9999
2 61747  97.3294 178.9401 0011597  12.9207 347.2333 15.36503803103176
SITRO-AIS-44
1 61748U 24199P   25311.21317331  .00035048  00000-0  77314-3 0  9999
2 61748  97.3251 180.5862 0008981  20.9850 339.1765 15.43779165103292
VIZARD-ION (RS68S)
1 61749U 24199Q   25311.17927546  .00029377  00000-0  72799-3 0  9990
2 61749  97.3294 179.8907 0010767  13.1621 346.9904 15.40296037103230
MTUSI-1
1 61750U 24199R   25311.15575006  .00026973  00000-0  67894-3 0  9999
2 61750  97.3263 179.4794 0011283  22.4842 337.6897 15.39831218103210
VLADIVOSTOK-1
1 61751U 24199S   25311.18809670  .00012477  00000-0  40760-3 0  9997
2 61751  97.3280 177.5205 0011680  30.1168 330.0743 15.31816587103091
SITRO-AIS-14
1 61752U 24199T   25311.20073515  .00005022  00000-0  45164-3 0  9993
2 61752  97.3374 159.3966 0008346  95.1604 265.0570 14.96042100101915
HORS-3 (RS81S)
1 61753U 24199U   25311.17253506  .00028898  00000-0  72094-3 0  9998
2 61753  97.3266 179.5971 0010079  24.3806 335.7915 15.40102875103220
HORS-4 (RS82S)
1 61754U 24199V   25311.20893748  .00030660  00000-0  72947-3 0  9998
2 61754  97.3251 179.9823 0010188  22.3127 337.8561 15.41527835103251
SITRO-AIS-43
1 61755U 24199W   25311.19748861  .00038405  00000-0  84350-3 0  9998
2 61755  97.3251 180.6069 0008898  20.9764 339.1847 15.43890222103290
SITRO-AIS-42
1 61756U 24199X   25311.18784108  .00039521  00000-0  86488-3 0  9996
2 61756  97.3254 180.6237 0008990  20.4175 339.7431 15.43990605103296
HORIZON (RS59S)
1 61757U 24199Y   25311.19926439  .00053803  00000-0  10024-2 0  9994
2 61757  97.3263 181.6235 0009056  10.5498 349.5941 15.48620819103352
SITRO-AIS-20
1 61758U 24199Z   25311.22032081  .00003947  00000-0  35387-3 0  9994
2 61758  97.3374 159.5074 0007857  95.4275 264.7844 14.96278484101923
SITRO-AIS-19
1 61759U 24199AA  25311.22060286  .00003931  00000-0  35262-3 0  9998
2 61759  97.3374 159.5089 0007770  96.7491 263.4615 14.96265265101923
SITRO-AIS-41
1 61760U 24199AB  25311.18060421  .00038282  00000-0  85103-3 0  9992
2 61760  97.3258 180.4982 0009019  20.7331 339.4281 15.43530028103288
2024-199AC
1 61761U 24199AC  25311.15958189  .00027579  00000-0  66909-3 0  9997
2 61761  97.3252 179.8995 0009068  22.3865 337.7775 15.40971337103247
ARCTICSAT-1 (RS74S)
1 61762U 24199AD  25311.16735976  .00046810  00000-0  90325-3 0  9994
2 61762  97.3264 181.5090 0009263   9.2790 350.8630 15.47639406103347
SIT-HSE
1 61763U 24199AE  25311.02080002  .00035168  00000-0  84842-3 0  9994
2 61763  97.3270 180.1130 0007707  29.7839 330.3845 15.41103780103242
SIT-2086
1 61764U 24199AF  25311.18382500  .00021573  00000-0  52867-3 0  9997
2 61764  97.3265 180.3438 0008401  11.7401 348.4040 15.40720018100116
MORDOVIA-IOT (RS50S)
1 61765U 24199AG  25311.19632442  .00108023  00000-0  13872-2 0  9990
2 61765  97.3208 183.5157 0007197  12.0427 348.1000 15.58724015100337
RUZAEVKA-390 (RS44S)
1 61766U 24199AH  25311.10458722  .00070110  00000-0  10593-2 0  9991
2 61766  97.3220 182.7255 0007626  10.8599 349.2818 15.54457563100274
2024-199AJ (? AHMAT-2)
1 61767U 24199AJ  25311.18751458  .00171785  00000-0  16307-2 0  9991
2 61767  97.3159 184.5212 0005398  17.3643 342.7801 15.66331906100405
HOD-HOD
1 61768U 24199AK  25311.13161749  .00022691  00000-0  59059-3 0  9998
2 61768  97.3267 179.5347 0008192  30.4488 329.7232 15.38871488100065
KOSAR
1 61769U 24199AL  25311.16756522  .00026718  00000-0  66429-3 0  9994
2 61769  97.3264 179.9194 0008088  30.9022 329.2699 15.40240807100093
SITRO-AIS-48
1 61771U 24199AN  25311.06399862  .00030865  00000-0  76233-3 0  9998
2 61771  97.3236 179.1677 0012277  30.0294 330.1654 15.40368646100049
HYPERVIEW-1G (RS66S)
1 61772U 24199AP  25311.20762362  .00040155  00000-0  87441-3 0  9990
2 61772  97.3247 180.2875 0012294  20.5374 339.6366 15.44096968100129
SITRO-AIS-47
1 61773U 24199AQ  25311.16740829  .00031186  00000-0  76332-3 0  9991
2 61773  97.3238 179.3418 0012172  30.4220 329.7730 15.40643407100067
SITRO-AIS-46
1 61774U 24199AR  25311.17143969  .00031489  00000-0  75825-3 0  9997
2 61774  97.3234 179.4694 0012230  30.4665 329.7290 15.41135596100077
CSTP-2.2
1 61775U 24199AS  25311.21033961  .00015918  00000-0  44903-3 0  9995
2 61775  97.3279 178.3940 0018227   8.0094 352.1437 15.36314461 99993
SITRO-AIS-40
1 61776U 24199AT  25311.17202409  .00033190  00000-0  79718-3 0  9990
2 61776  97.3234 179.4726 0012302  30.3297 329.8659 15.41200707103222
CSTP-2.1
1 61777U 24199AU  25311.20647242  .00018413  00000-0  51573-3 0  9993
2 61777  97.3279 178.3918 0017777   9.1515 351.0050 15.36514031 99993
SITRO-AIS-39
1 61778U 24199AV  25311.16145509  .00028931  00000-0  71798-3 0  9995
2 61778  97.3237 179.1917 0012502  30.6503 329.5471 15.40234016100057
ALTAIR (RS65S)
1 61779U 24199AW  25311.21422135  .00011565  00000-0  37836-3 0  9995
2 61779  97.3295 177.3639 0015614  28.2446 331.9639 15.31734905103079
SITRO-AIS-37
1 61780U 24199AX  25311.06617907  .00030933  00000-0  75891-3 0  9996
2 61780  97.3244 179.2074 0012724  30.8633 329.3359 15.40565940100040
ASRTU-1 (RS64S/BJ2CR)
1 61781U 24199AY  25311.19280317  .00013088  00000-0  43843-3 0  9996
2 61781  97.3283 177.0502 0016053  29.1377 331.0756 15.30935697 99903
TUSUR GO (RS78S)
1 61782U 24199AZ  25311.18141122  .00057846  00000-0  11104-2 0  9990
2 61782  97.3236 180.7561 0012049  19.9152 340.2566 15.47706551100151
